BRO-5                   
1 51061U 22002CF  26201.92318038  .00009759  00000+0  18164-3 0  9996
2 51061  97.2973 275.9316 0005999 182.2252 177.8973 15.49052594251474
BRO-6                   
1 52422U 22047AE  26201.92828627  .00033911  00000+0  54631-3 0  9993
2 52422  97.3380 293.6882 0002914 277.2516  82.8406 15.52874123236389
BRO-8                   
1 55011U 23001C   26201.93953869  .00025603  00000+0  44187-3 0  9993
2 55011  97.3178 267.6547 0004242  18.1959 341.9444 15.50990571197436
BRO-11                  
1 58264U 23174J   26201.91854743  .00003038  00000+0  11504-3 0  9991
2 58264  97.3890 278.4568 0012014  90.4146 269.8470 15.27622088149905
BRO-13                  
1 59107U 24043K   26201.92263811  .00001074  00000+0  99379-4 0  9990
2 59107  97.8538 333.0563 0007440 240.1015 119.9468 14.96663974129662
BRO-12                  
1 59108U 24043L   26201.91326635  .00001257  00000+0  11468-3 0  9999
2 59108  97.8521 333.2170 0007007 232.3436 127.7150 14.96904437129689
BRO-14                  
1 60551U 24149CM  26201.90126297  .00000980  00000+0  91920-4 0  9995
2 60551  97.6863 277.0726 0006293 359.8928   0.2291 14.96247855105037
BRO-15                  
1 60553U 24149CP  26201.95089532  .00000854  00000+0  80731-4 0  9990
2 60553  97.6789 276.6916 0007129 345.9417  14.1605 14.96228147105058
BRO-16                  
1 62654U 25009AX  26201.76062888  .00002056  00000+0  87435-4 0  9998
2 62654  97.4048 281.8340 0002537 142.5724 217.5691 15.24151540 83915
BRO-18                  
1 64550U 25135Y   26201.91070336  .00002289  00000+0  10275-3 0  9994
2 64550  97.4655 316.6870 0002610 107.9295 252.2226 15.22199268 60003
BRO-17                  
1 66672U 25276G   26201.93036913  .00001940  00000+0  98217-4 0  9998
2 66672  97.4177 274.3865 0005407 234.0238 126.0495 15.18179282 35512
BRO-20                  
1 66674U 25276J   26201.70804474  .00001727  00000+0  87370-4 0  9991
2 66674  97.4156 274.1565 0004962 238.0576 122.0176 15.18344909 35488
BRO-19                  
1 68422U 26067G   26201.84491613  .00002715  00000+0  13293-3 0  9995
2 68422  97.4496 159.8255 0002774 102.4077 257.7468 15.19014311 17057
BRO-21                  
1 69007U 26100AD  26201.27038182  .00003313  00000+0  14962-3 0  9997
2 69007  97.4002  98.6216 0006548 307.5906  52.4735 15.21646820 11835
BRO-22                  
1 69504U 26132C   26201.71179315  .00001590  00000+0  13290-3 0  9995
2 69504  97.6823 264.9607 0017209 160.9687 199.2183 14.99824407  5805
