{"fetched_at":"2026-07-21T07:06:42.010Z","source":"https://celestrak.org/NORAD/elements/gp.php?NAME=BRO&FORMAT=JSON","constellation":"unseenlabs","records":[{"OBJECT_NAME":"BRO-5","OBJECT_ID":"2022-002CF","EPOCH":"2026-07-20T22:09:22.784832","CLASSIFICATION_TYPE":"U","MEAN_MOTION":15.49052594,"ECCENTRICITY":0.00059997,"INCLINATION":97.2973,"RA_OF_ASC_NODE":275.9316,"ARG_OF_PERICENTER":182.2252,"MEAN_ANOMALY":177.8973,"EPHEMERIS_TYPE":0,"NORAD_CAT_ID":51061,"ELEMENT_SET_NO":999,"REV_AT_EPOCH":25147,"BSTAR":0.00018164388,"MEAN_MOTION_DOT":0.00009759,"MEAN_MOTION_DDOT":0},{"OBJECT_NAME":"BRO-6","OBJECT_ID":"2022-047AE","EPOCH":"2026-07-20T22:16:43.933728","CLASSIFICATION_TYPE":"U","MEAN_MOTION":15.52874123,"ECCENTRICITY":0.0002914,"INCLINATION":97.338,"RA_OF_ASC_NODE":293.6882,"ARG_OF_PERICENTER":277.2516,"MEAN_ANOMALY":82.8406,"EPHEMERIS_TYPE":0,"NORAD_CAT_ID":52422,"ELEMENT_SET_NO":999,"REV_AT_EPOCH":23638,"BSTAR":0.00054631319,"MEAN_MOTION_DOT":0.00033911,"MEAN_MOTION_DDOT":0},{"OBJECT_NAME":"BRO-8","OBJECT_ID":"2023-001C","EPOCH":"2026-07-20T22:32:56.142816","CLASSIFICATION_TYPE":"U","MEAN_MOTION":15.50990571,"ECCENTRICITY":0.00042428,"INCLINATION":97.3178,"RA_OF_ASC_NODE":267.6547,"ARG_OF_PERICENTER":18.1959,"MEAN_ANOMALY":341.9444,"EPHEMERIS_TYPE":0,"NORAD_CAT_ID":55011,"ELEMENT_SET_NO":999,"REV_AT_EPOCH":19743,"BSTAR":0.00044187014,"MEAN_MOTION_DOT":0.00025603,"MEAN_MOTION_DDOT":0},{"OBJECT_NAME":"BRO-11","OBJECT_ID":"2023-174J","EPOCH":"2026-07-20T22:02:42.497952","CLASSIFICATION_TYPE":"U","MEAN_MOTION":15.27622088,"ECCENTRICITY":0.0012014,"INCLINATION":97.389,"RA_OF_ASC_NODE":278.4568,"ARG_OF_PERICENTER":90.4146,"MEAN_ANOMALY":269.847,"EPHEMERIS_TYPE":0,"NORAD_CAT_ID":58264,"ELEMENT_SET_NO":999,"REV_AT_EPOCH":14990,"BSTAR":0.00011504072,"MEAN_MOTION_DOT":0.00003038,"MEAN_MOTION_DDOT":0},{"OBJECT_NAME":"BRO-13","OBJECT_ID":"2024-043K","EPOCH":"2026-07-20T22:08:35.932704","CLASSIFICATION_TYPE":"U","MEAN_MOTION":14.96663974,"ECCENTRICITY":0.00074407,"INCLINATION":97.8538,"RA_OF_ASC_NODE":333.0563,"ARG_OF_PERICENTER":240.1015,"MEAN_ANOMALY":119.9468,"EPHEMERIS_TYPE":0,"NORAD_CAT_ID":59107,"ELEMENT_SET_NO":999,"REV_AT_EPOCH":12966,"BSTAR":0.000099378736,"MEAN_MOTION_DOT":0.00001074,"MEAN_MOTION_DDOT":0},{"OBJECT_NAME":"BRO-12","OBJECT_ID":"2024-043L","EPOCH":"2026-07-20T21:55:06.212640","CLASSIFICATION_TYPE":"U","MEAN_MOTION":14.96904437,"ECCENTRICITY":0.00070077,"INCLINATION":97.8521,"RA_OF_ASC_NODE":333.217,"ARG_OF_PERICENTER":232.3436,"MEAN_ANOMALY":127.715,"EPHEMERIS_TYPE":0,"NORAD_CAT_ID":59108,"ELEMENT_SET_NO":999,"REV_AT_EPOCH":12968,"BSTAR":0.00011467964,"MEAN_MOTION_DOT":0.00001257,"MEAN_MOTION_DDOT":0},{"OBJECT_NAME":"BRO-14","OBJECT_ID":"2024-149CM","EPOCH":"2026-07-20T21:37:49.120608","CLASSIFICATION_TYPE":"U","MEAN_MOTION":14.96247855,"ECCENTRICITY":0.0006293,"INCLINATION":97.6863,"RA_OF_ASC_NODE":277.0726,"ARG_OF_PERICENTER":359.8928,"MEAN_ANOMALY":0.2291,"EPHEMERIS_TYPE":0,"NORAD_CAT_ID":60551,"ELEMENT_SET_NO":999,"REV_AT_EPOCH":10503,"BSTAR":0.00009192018,"MEAN_MOTION_DOT":0.0000098,"MEAN_MOTION_DDOT":0},{"OBJECT_NAME":"BRO-15","OBJECT_ID":"2024-149CP","EPOCH":"2026-07-20T22:49:17.355648","CLASSIFICATION_TYPE":"U","MEAN_MOTION":14.96228147,"ECCENTRICITY":0.00071299,"INCLINATION":97.6789,"RA_OF_ASC_NODE":276.6916,"ARG_OF_PERICENTER":345.9417,"MEAN_ANOMALY":14.1605,"EPHEMERIS_TYPE":0,"NORAD_CAT_ID":60553,"ELEMENT_SET_NO":999,"REV_AT_EPOCH":10505,"BSTAR":0.000080730647,"MEAN_MOTION_DOT":0.00000854,"MEAN_MOTION_DDOT":0},{"OBJECT_NAME":"BRO-16","OBJECT_ID":"2025-009AX","EPOCH":"2026-07-20T18:15:18.335232","CLASSIFICATION_TYPE":"U","MEAN_MOTION":15.2415154,"ECCENTRICITY":0.00025375,"INCLINATION":97.4048,"RA_OF_ASC_NODE":281.834,"ARG_OF_PERICENTER":142.5724,"MEAN_ANOMALY":217.5691,"EPHEMERIS_TYPE":0,"NORAD_CAT_ID":62654,"ELEMENT_SET_NO":999,"REV_AT_EPOCH":8391,"BSTAR":0.000087434832,"MEAN_MOTION_DOT":0.00002056,"MEAN_MOTION_DDOT":0},{"OBJECT_NAME":"BRO-18","OBJECT_ID":"2025-135Y","EPOCH":"2026-07-20T21:51:24.770304","CLASSIFICATION_TYPE":"U","MEAN_MOTION":15.22199268,"ECCENTRICITY":0.00026101,"INCLINATION":97.4655,"RA_OF_ASC_NODE":316.687,"ARG_OF_PERICENTER":107.9295,"MEAN_ANOMALY":252.2226,"EPHEMERIS_TYPE":0,"NORAD_CAT_ID":64550,"ELEMENT_SET_NO":999,"REV_AT_EPOCH":6000,"BSTAR":0.00010274811,"MEAN_MOTION_DOT":0.00002289,"MEAN_MOTION_DDOT":0},{"OBJECT_NAME":"BRO-17","OBJECT_ID":"2025-276G","EPOCH":"2026-07-20T22:19:43.892832","CLASSIFICATION_TYPE":"U","MEAN_MOTION":15.18179282,"ECCENTRICITY":0.00054073,"INCLINATION":97.4177,"RA_OF_ASC_NODE":274.3865,"ARG_OF_PERICENTER":234.0238,"MEAN_ANOMALY":126.0495,"EPHEMERIS_TYPE":0,"NORAD_CAT_ID":66672,"ELEMENT_SET_NO":999,"REV_AT_EPOCH":3551,"BSTAR":0.000098216818,"MEAN_MOTION_DOT":0.0000194,"MEAN_MOTION_DDOT":0},{"OBJECT_NAME":"BRO-20","OBJECT_ID":"2025-276J","EPOCH":"2026-07-20T16:59:35.065536","CLASSIFICATION_TYPE":"U","MEAN_MOTION":15.18344909,"ECCENTRICITY":0.00049628,"INCLINATION":97.4156,"RA_OF_ASC_NODE":274.1565,"ARG_OF_PERICENTER":238.0576,"MEAN_ANOMALY":122.0176,"EPHEMERIS_TYPE":0,"NORAD_CAT_ID":66674,"ELEMENT_SET_NO":999,"REV_AT_EPOCH":3548,"BSTAR":0.000087369808,"MEAN_MOTION_DOT":0.00001727,"MEAN_MOTION_DDOT":0},{"OBJECT_NAME":"BRO-19","OBJECT_ID":"2026-067G","EPOCH":"2026-07-20T20:16:40.753632","CLASSIFICATION_TYPE":"U","MEAN_MOTION":15.19014311,"ECCENTRICITY":0.00027742,"INCLINATION":97.4496,"RA_OF_ASC_NODE":159.8255,"ARG_OF_PERICENTER":102.4077,"MEAN_ANOMALY":257.7468,"EPHEMERIS_TYPE":0,"NORAD_CAT_ID":68422,"ELEMENT_SET_NO":999,"REV_AT_EPOCH":1705,"BSTAR":0.00013292791,"MEAN_MOTION_DOT":0.00002715,"MEAN_MOTION_DDOT":0},{"OBJECT_NAME":"BRO-21","OBJECT_ID":"2026-100AD","EPOCH":"2026-07-20T06:29:20.989248","CLASSIFICATION_TYPE":"U","MEAN_MOTION":15.2164682,"ECCENTRICITY":0.00065488,"INCLINATION":97.4002,"RA_OF_ASC_NODE":98.6216,"ARG_OF_PERICENTER":307.5906,"MEAN_ANOMALY":52.4735,"EPHEMERIS_TYPE":0,"NORAD_CAT_ID":69007,"ELEMENT_SET_NO":999,"REV_AT_EPOCH":1183,"BSTAR":0.00014961956,"MEAN_MOTION_DOT":0.00003313,"MEAN_MOTION_DDOT":0},{"OBJECT_NAME":"BRO-22","OBJECT_ID":"2026-132C","EPOCH":"2026-07-20T17:04:58.928160","CLASSIFICATION_TYPE":"U","MEAN_MOTION":14.99824407,"ECCENTRICITY":0.00172099,"INCLINATION":97.6823,"RA_OF_ASC_NODE":264.9607,"ARG_OF_PERICENTER":160.9687,"MEAN_ANOMALY":199.2183,"EPHEMERIS_TYPE":0,"NORAD_CAT_ID":69504,"ELEMENT_SET_NO":999,"REV_AT_EPOCH":580,"BSTAR":0.00013290047,"MEAN_MOTION_DOT":0.0000159,"MEAN_MOTION_DDOT":0}]}
